GLOBALSTAR M024         
1 25883U 99043A   25087.72400284 -.00000076  00000+0 -39431-3 0  9997
2 25883  51.9996 202.1753 0000784 333.1231 180.9491 11.10162028105923
GLOBALSTAR M027         
1 25884U 99043B   25087.93993080 -.00000051  00000+0  45820-3 0  9993
2 25884  52.0200 277.3993 0020974 220.0316 139.8932 11.04371599132375
GLOBALSTAR M053         
1 25886U 99043D   25087.94549963 -.00000055  00000+0  39857-3 0  9990
2 25886  52.0025   0.7925 0003094 313.9635 127.3894 11.27663831110390
GLOBALSTAR M050         
1 25908U 99049B   25087.92185465  .00000061  00000+0  16893-2 0  9992
2 25908  52.0021 337.1781 0008430 229.3922 213.3206 12.07451711138491
GLOBALSTAR M033         
1 25909U 99049C   25087.83303428 -.00000063  00000+0  27280-3 0  9990
2 25909  51.9901 214.8015 0014191  99.2073 261.0380 12.20287978525939
